NORAD_CAT_ID,OBJECT_NAME,OBJECT_TYPE,EPOCH,MEAN_MOTION,ECCENTRICITY,INCLINATION,RA_OF_ASC_NODE,ARG_OF_PERICENTER,MEAN_ANOMALY,BSTAR,MEAN_MOTION_DOT,MEAN_MOTION_DDOT,TLE_LINE0,TLE_LINE1,TLE_LINE2,SEMIMAJOR_AXIS,PERIOD,APOGEE,PERIGEE,DECAYED
53704.0,STARLINK-4714,PAYLOAD,2022-12-25 13:57:25,15.088275,0.0001338,53.2177,97.1838,69.4989,290.6147,-1.147e-05,-4.7e-06,0.0,0 STARLINK-4714,1 53704U 22107E   22359.58154784 -.00000470  00000-0 -11470-4 0  9994,2 53704  53.2177  97.1838 0001338  69.4989 290.6147 15.08827500 17454,6917.919,95.438,540.7090000000002,538.8580000000002,0.0
53704.0,STARLINK-4714,PAYLOAD,2022-12-25 15:32:48,15.08827924,0.0001385999999999,53.218,96.8868,76.1689,283.9457,-9.7423e-06,-4.43e-06,0.0,0 STARLINK-4714,1 53704U 22107E   22359.64778789 -.00000443  00000-0 -97423-5 0  9991,2 53704  53.2180  96.8868 0001386  76.1689 283.9457 15.08827924 18058,6917.917,95.438,540.741,538.823,0.0
53704.0,STARLINK-4714,PAYLOAD,2022-12-25 23:29:44,15.088354,0.0001356,53.2175,95.3997,71.7726,288.3414,6.988e-06,-1.77e-06,0.0,0 STARLINK-4714,1 53704U 22107E   22359.97898389 -.00000177  00000-0  69880-5 0  9995,2 53704  53.2175  95.3997 0001356  71.7726 288.3414 15.08835400 17519,6917.894,95.438,540.698,538.821,0.0
53704.0,STARLINK-4714,PAYLOAD,2022-12-26 18:34:21,15.08834649,3.7e-05,53.2175,91.8311,291.6116,68.4837,-7.0017e-05,-1.401e-05,0.0,0 STARLINK-4714,1 53704U 22107E   22360.77386350 -.00001401  00000-0 -70017-4 0  9990,2 53704  53.2175  91.8311 0000370 291.6116  68.4837 15.08834649 18220,6917.897,95.438,540.018,539.506,0.0
53704.0,STARLINK-4714,PAYLOAD,2022-12-28 05:32:48,15.08852876,0.0001296999999999,53.2185,85.2927,66.0339,294.0789,0.00021783,3.182e-05,0.0,0 STARLINK-4714,1 53704U 22107E   22362.23112026  .00003182  00000-0  21783-3 0  9991,2 53704  53.2185  85.2927 0001297  66.0339 294.0789 15.08852876 17854,6917.840999999999,95.437,540.6030000000002,538.809,0.0
53704.0,STARLINK-4714,PAYLOAD,2022-12-29 05:23:38,15.08833262,0.0001163,53.2194,80.8298,54.5914,305.5186,-0.00016534,-2.918e-05,0.0,0 STARLINK-4714,1 53704U 22107E   22363.22474591 -.00002918  00000-0 -16534-3 0  9995,2 53704  53.2194  80.8298 0001163  54.5914 305.5186 15.08833262 18004,6917.901,95.438,540.571,538.961,0.0
53704.0,STARLINK-4714,PAYLOAD,2022-12-29 11:45:11,15.08833556,0.0001249,53.2185,79.6435,54.762,305.3489,-0.00026825,-4.554e-05,0.0,0 STARLINK-4714,1 53704U 22107E   22363.48971092 -.00004554  00000-0 -26825-3 0  9993,2 53704  53.2185  79.6435 0001249  54.7620 305.3489 15.08833556 18633,6917.9,95.438,540.629,538.901,0.0
53704.0,STARLINK-4714,PAYLOAD,2022-12-30 05:14:25,15.08845521,0.0001217,53.219,76.3674,66.3772,293.7348,-0.00018665,-3.258e-05,0.0,0 STARLINK-4714,1 53704U 22107E   22364.21834501 -.00003258  00000-0 -18665-3 0  9991,2 53704  53.2190  76.3674 0001217  66.3772 293.7348 15.08845521 18156,6917.864000000001,95.437,540.57,538.887,0.0
53704.0,STARLINK-4714,PAYLOAD,2022-12-30 11:35:57,15.08835988,0.0001296,53.2181,75.1789,64.4204,295.6921,0.0001641999999999,2.326e-05,0.0,0 STARLINK-4714,1 53704U 22107E   22364.48329901  .00002326  00000-0  16420-3 0  9993,2 53704  53.2181  75.1789 0001296  64.4204 295.6921 15.08835988 18789,6917.893,95.438,540.654,538.861,0.0
53704.0,STARLINK-4714,PAYLOAD,2022-12-31 05:05:10,15.08852407,0.0001492,53.2176,71.9084,63.3539,296.7605,0.00033483,5.047e-05,0.0,0 STARLINK-4714,1 53704U 22107E   22365.21192391  .00005047  00000-0  33483-3 0  9997,2 53704  53.2176  71.9084 0001492  63.3539 296.7605 15.08852407 18306,6917.842,95.437,540.74,538.675,0.0
53704.0,STARLINK-4714,PAYLOAD,2022-12-31 13:02:06,15.08845725,0.0001499,53.2179,70.4222,61.8846,298.2297,0.00027069,4.023e-05,0.0,0 STARLINK-4714,1 53704U 22107E   22365.54312876  .00004023  00000-0  27069-3 0  9991,2 53704  53.2179  70.4222 0001499  61.8846 298.2297 15.08845725 18352,6917.863,95.437,540.765,538.691,0.0
53704.0,STARLINK-4714,PAYLOAD,2022-12-31 14:37:29,15.08845754,0.0001505,53.2179,70.1249,61.6377,298.4767,0.00026141,3.875e-05,0.0,0 STARLINK-4714,1 53704U 22107E   22365.60936837  .00003875  00000-0  26141-3 0  9991,2 53704  53.2179  70.1249 0001505  61.6377 298.4767 15.08845754 18955,6917.863,95.437,540.769,538.687,0.0
53704.0,STARLINK-4714,PAYLOAD,2022-12-31 20:59:02,15.08841661,0.0001358,53.2181,68.9351,59.1614,300.9512,0.00012822,1.753e-05,0.0,0 STARLINK-4714,1 53704U 22107E   22365.87433329  .00001753  00000-0  12822-3 0  9992,2 53704  53.2181  68.9351 0001358  59.1614 300.9512 15.08841661 18409,6917.875,95.437,540.68,538.8009999999998,0.0
53704.0,STARLINK-4714,PAYLOAD,2023-01-01 04:55:59,15.08824029,0.0001354,53.2176,67.4477,51.1897,308.9216,-3.7681e-05,-8.87e-06,0.0,0 STARLINK-4714,1 53704U 22107E   23001.20555064 -.00000887  00000-0 -37681-4 0  9998,2 53704  53.2176  67.4477 0001354  51.1897 308.9216 15.08824029 18450,6917.929,95.439,540.731,538.8580000000002,0.0
53704.0,STARLINK-4714,PAYLOAD,2023-01-01 14:28:19,15.08817916,0.0001351999999999,53.2176,65.6627,60.3891,299.7236,-0.00021491,-3.704e-05,0.0,0 STARLINK-4714,1 53704U 22107E   23001.60300242 -.00003704  00000-0 -21491-3 0  9990,2 53704  53.2176  65.6627 0001352  60.3891 299.7236 15.08817916 18514,6917.948,95.439,540.748,538.878,0.0
53704.0,STARLINK-4714,PAYLOAD,2023-01-01 20:49:51,15.08822879,0.0001534,53.218,64.4752,62.7698,297.3451,-0.00021518,-3.709e-05,0.0,0 STARLINK-4714,1 53704U 22107E   23001.86796230 -.00003709  00000-0 -21518-3 0  9999,2 53704  53.2180  64.4752 0001534  62.7698 297.3451 15.08822879 19145,6917.933000000001,95.439,540.859,538.737,0.0
53704.0,STARLINK-4714,PAYLOAD,2023-01-02 04:46:47,15.08825156,0.0001428,53.2182,62.9878,58.3536,301.7595,-0.00020277,-3.512e-05,0.0,0 STARLINK-4714,1 53704U 22107E   23002.19916129 -.00003512  00000-0 -20277-3 0  9990,2 53704  53.2182  62.9878 0001428  58.3536 301.7595 15.08825156 18603,6917.926,95.438,540.779,538.803,0.0
53704.0,STARLINK-4714,PAYLOAD,2023-01-02 14:19:05,15.08842462,0.0001459,53.2178,61.2032,55.167,304.9459,-0.00010225,-1.915e-05,0.0,0 STARLINK-4714,1 53704U 22107E   23002.59658837 -.00001915  00000-0 -10225-3 0  9990,2 53704  53.2178  61.2032 0001459  55.1670 304.9459 15.08842462 18669,6917.873000000001,95.437,540.747,538.729,0.0
53704.0,STARLINK-4714,PAYLOAD,2023-01-02 20:40:37,15.08843878,0.0001501999999999,53.2183,60.0142,59.4701,300.6439,2.4945e-05,1.09e-06,0.0,0 STARLINK-4714,1 53704U 22107E   23002.86154469  .00000109  00000-0  24945-4 0  9999,2 53704  53.2183  60.0142 0001502  59.4701 300.6439 15.08843878 19298,6917.869000000002,95.437,540.773,538.694,0.0
53704.0,STARLINK-4714,PAYLOAD,2023-01-03 04:37:34,15.08826283,0.0001483,53.2197,58.5277,53.7621,306.3508,0.00017329,2.47e-05,0.0,0 STARLINK-4714,1 53704U 22107E   23003.19275509  .00002470  00000-0  17329-3 0  9995,2 53704  53.2197  58.5277 0001483  53.7621 306.3508 15.08826283 18751,6917.922,95.438,540.813,538.761,0.0
53704.0,STARLINK-4714,PAYLOAD,2023-01-04 10:49:53,15.08838415,0.0001724,53.2184,52.8773,71.7224,288.3956,0.00015624,2.199e-05,0.0,0 STARLINK-4714,1 53704U 22107E   23004.45131757  .00002199  00000-0  15624-3 0  9995,2 53704  53.2184  52.8773 0001724  71.7224 288.3956 15.08838415 18949,6917.885,95.438,540.943,538.558,0.0
53704.0,STARLINK-4714,PAYLOAD,2023-01-05 12:16:03,15.08842863,0.0001665,53.2191,48.1189,53.5731,306.5414,4.969600000000001e-05,5.03e-06,0.0,0 STARLINK-4714,1 53704U 22107E   23005.51115470  .00000503  00000-0  49696-4 0  9991,2 53704  53.2191  48.1189 0001665  53.5731 306.5414 15.08842863 19104,6917.871999999999,95.437,540.888,538.585,0.0
53704.0,STARLINK-4714,PAYLOAD,2023-01-06 12:06:49,15.08851422,0.0001448,53.2179,43.6572,49.3784,310.7334,8.9967e-05,1.145e-05,0.0,0 STARLINK-4714,1 53704U 22107E   23006.50474490  .00001145  00000-0  89967-4 0  9999,2 53704  53.2179  43.6572 0001448  49.3784 310.7334 15.08851422 19251,6917.845,95.437,540.712,538.7090000000002,0.0
53704.0,STARLINK-4714,PAYLOAD,2023-01-06 13:42:13,15.08848382,0.0001402,53.2182,43.3586,59.5452,300.5678,6.3894e-05,7.29e-06,0.0,0 STARLINK-4714,1 53704U 22107E   23006.57098713  .00000729  00000-0  63894-4 0  9994,2 53704  53.2182  43.3586 0001402  59.5452 300.5678 15.08848382 19857,6917.855,95.437,540.69,538.75,0.0
53704.0,STARLINK-4714,PAYLOAD,2023-01-07 02:25:18,15.08838098,0.0001657,53.2171,40.9813,55.6489,304.4659,5.760100000000001e-05,6.29e-06,0.0,0 STARLINK-4714,1 53704U 22107E   23007.10091205  .00000629  00000-0  57601-4 0  9991,2 53704  53.2171  40.9813 0001657  55.6489 304.4659 15.08838098 19349,6917.886,95.438,540.8969999999998,538.605,0.0
53704.0,STARLINK-4714,PAYLOAD,2023-01-07 13:33:00,15.08838588,0.0001537,53.2187,38.9021,41.9205,318.1904,6.7215e-05,7.82e-06,0.0,0 STARLINK-4714,1 53704U 22107E   23007.56459256  .00000782  00000-0  67215-4 0  9997,2 53704  53.2187  38.9021 0001537  41.9205 318.1904 15.08838588 20009,6917.885,95.438,540.813,538.686,0.0
53704.0,STARLINK-4714,PAYLOAD,2023-01-08 11:48:26,15.08831462,0.0001754999999999,53.2184,34.7376,55.7676,304.3482,-0.00012201,-2.229e-05,0.0,0 STARLINK-4714,1 53704U 22107E   23008.49196856 -.00002229  00000-0 -12201-3 0  9998,2 53704  53.2184  34.7376 0001755  55.7676 304.3482 15.08831462 19550,6917.906,95.438,540.986,538.557,0.0
53704.0,STARLINK-4714,PAYLOAD,2023-01-08 18:09:57,15.08845755,0.0001748,53.2178,33.5489,52.07899999999999,308.036,-6.5723000000000014e-06,-3.93e-06,0.0,0 STARLINK-4714,1 53704U 22107E   23008.75691491 -.00000393  00000-0 -65723-5 0  9991,2 53704  53.2178  33.5489 0001748  52.0790 308.0360 15.08845755 19594,6917.863,95.437,540.937,538.519,0.0
53704.0,STARLINK-4714,PAYLOAD,2023-01-09 11:39:11,15.08849737,0.0001675999999999,53.2174,30.2781,52.6674,307.4471,-1.7787e-05,-5.71e-06,0.0,0 STARLINK-4714,1 53704U 22107E   23009.48555492 -.00000571  00000-0 -17787-4 0  9996,2 53704  53.2174  30.2781 0001676  52.6674 307.4471 15.08849737 20295,6917.851,95.437,540.875,538.556,0.0
